{"type": "FeatureCollection", "features": [{"type": "Feature", "geometry": {"type": "Polygon", "coordinates": [[[-47.6591, -21.1958], [-47.6599, -21.1857], [-47.6661, -21.1757], [-47.6651, -21.1613], [-47.6535, -21.1552], [-47.6467, -21.1481], [-47.6497, -21.1415], [-47.6591, -21.1333], [-47.6673, -21.1186], [-47.6889, -21.1314], [-47.6969, -21.1317], [-47.7191, -21.1201], [-47.731, -21.1152], [-47.751, -21.1127], [-47.7628, -21.0957], [-47.755, -21.0825], [-47.7694, -21.0821], [-47.7783, -21.0888], [-47.7849, -21.0808], [-47.7764, -21.0718], [-47.7786, -21.0618], [-47.7961, -21.0601], [-47.8018, -21.0668], [-47.8208, -21.0681], [-47.8498, -21.0639], [-47.872, -21.0643], [-47.8722, -21.0737], [-47.8806, -21.0889], [-47.8829, -21.0978], [-47.9036, -21.0974], [-47.9046, -21.1035], [-47.9131, -21.1191], [-47.9091, -21.1235], [-47.9114, -21.132], [-47.9063, -21.1481], [-47.9095, -21.1582], [-47.9016, -21.1603], [-47.9044, -21.1781], [-47.9184, -21.1903], [-47.9166, -21.2007], [-47.9434, -21.2003], [-47.9318, -21.2037], [-47.9259, -21.2233], [-47.9214, -21.2283], [-47.922, -21.2421], [-47.9078, -21.2605], [-47.917, -21.2621], [-47.9264, -21.2673], [-47.9318, -21.2745], [-47.9483, -21.2836], [-47.9649, -21.2971], [-47.9892, -21.3094], [-47.9816, -21.3149], [-47.975, -21.3264], [-47.9673, -21.3251], [-47.9623, -21.3422], [-47.944, -21.346], [-47.9387, -21.3589], [-47.9295, -21.3565], [-47.9141, -21.3592], [-47.906, -21.3681], [-47.9037, -21.3693], [-47.8841, -21.3583], [-47.8657, -21.3567], [-47.8608, -21.3598], [-47.851, -21.3585], [-47.8322, -21.3455], [-47.8177, -21.3431], [-47.8117, -21.3369], [-47.8059, -21.3209], [-47.7973, -21.3171], [-47.7898, -21.3227], [-47.7871, -21.298], [-47.774, -21.2846], [-47.7629, -21.284], [-47.7576, -21.2718], [-47.7323, -21.2632], [-47.7256, -21.2521], [-47.7055, -21.2375], [-47.6972, -21.2253], [-47.6742, -21.2164], [-47.668, -21.2116], [-47.6655, -21.2004], [-47.6591, -21.1958]]]}, "properties": {"codarea": "3543402"}}]}